[{"OBJECT_NAME":"ONEWEB-0358","OBJECT_ID":"2021-090F","EPOCH":"2025-08-18T12:46:07.690944","MEAN_MOTION":13.20773589,"ECCENTRICITY":0.0001953,"INCLINATION":87.93,"RA_OF_ASC_NODE":334.7439,"ARG_OF_PERICENTER":104.1299,"MEAN_ANOMALY":256.0052,"EPHEMERIS_TYPE":0,"CLASSIFICATION_TYPE":"U","NORAD_CAT_ID":49284,"ELEMENT_SET_NO":999,"REV_AT_EPOCH":19060,"BSTAR":0.00011698,"MEAN_MOTION_DOT":6.1e-7,"MEAN_MOTION_DDOT":0},{"OBJECT_NAME":"ONEWEB-0359","OBJECT_ID":"2021-090G","EPOCH":"2025-08-18T12:41:35.379744","MEAN_MOTION":13.20772162,"ECCENTRICITY":0.0001844,"INCLINATION":87.929,"RA_OF_ASC_NODE":334.7545,"ARG_OF_PERICENTER":111.5532,"MEAN_ANOMALY":248.5798,"EPHEMERIS_TYPE":0,"CLASSIFICATION_TYPE":"U","NORAD_CAT_ID":49285,"ELEMENT_SET_NO":999,"REV_AT_EPOCH":19058,"BSTAR":2.1247e-6,"MEAN_MOTION_DOT":1.4e-7,"MEAN_MOTION_DDOT":0},{"OBJECT_NAME":"ONEWEB-0360","OBJECT_ID":"2021-090H","EPOCH":"2025-08-18T12:27:57.144096","MEAN_MOTION":13.20770968,"ECCENTRICITY":0.0001812,"INCLINATION":87.9293,"RA_OF_ASC_NODE":334.7651,"ARG_OF_PERICENTER":104.1384,"MEAN_ANOMALY":255.995,"EPHEMERIS_TYPE":0,"CLASSIFICATION_TYPE":"U","NORAD_CAT_ID":49286,"ELEMENT_SET_NO":999,"REV_AT_EPOCH":18989,"BSTAR":5.2849e-5,"MEAN_MOTION_DOT":3.4e-7,"MEAN_MOTION_DDOT":0},{"OBJECT_NAME":"ONEWEB-0361","OBJECT_ID":"2021-090J","EPOCH":"2025-08-18T13:49:46.659936","MEAN_MOTION":13.20772562,"ECCENTRICITY":0.0002055,"INCLINATION":87.9297,"RA_OF_ASC_NODE":334.7487,"ARG_OF_PERICENTER":100.5878,"MEAN_ANOMALY":259.5487,"EPHEMERIS_TYPE":0,"CLASSIFICATION_TYPE":"U","NORAD_CAT_ID":49287,"ELEMENT_SET_NO":999,"REV_AT_EPOCH":19035,"BSTAR":5.9216e-5,"MEAN_MOTION_DOT":3.7e-7,"MEAN_MOTION_DDOT":0},{"OBJECT_NAME":"ONEWEB-0362","OBJECT_ID":"2021-090K","EPOCH":"2025-08-18T10:34:42.870144","MEAN_MOTION":13.19726541,"ECCENTRICITY":0.0001632,"INCLINATION":87.926,"RA_OF_ASC_NODE":5.175,"ARG_OF_PERICENTER":96.6525,"MEAN_ANOMALY":263.4794,"EPHEMERIS_TYPE":0,"CLASSIFICATION_TYPE":"U","NORAD_CAT_ID":49288,"ELEMENT_SET_NO":999,"REV_AT_EPOCH":18698,"BSTAR":0.00015114,"MEAN_MOTION_DOT":7.3e-7,"MEAN_MOTION_DDOT":0},{"OBJECT_NAME":"ONEWEB-0363","OBJECT_ID":"2021-090L","EPOCH":"2025-08-18T14:12:30.622176","MEAN_MOTION":13.20772434,"ECCENTRICITY":0.0002269,"INCLINATION":87.9295,"RA_OF_ASC_NODE":334.7412,"ARG_OF_PERICENTER":104.5151,"MEAN_ANOMALY":255.6234,"EPHEMERIS_TYPE":0,"CLASSIFICATION_TYPE":"U","NORAD_CAT_ID":49289,"ELEMENT_SET_NO":999,"REV_AT_EPOCH":19036,"BSTAR":-0.00019476,"MEAN_MOTION_DOT":-6.6e-7,"MEAN_MOTION_DDOT":0},{"OBJECT_NAME":"ONEWEB-0364","OBJECT_ID":"2021-090M","EPOCH":"2025-08-18T07:50:41.381376","MEAN_MOTION":13.20771277,"ECCENTRICITY":0.0002063,"INCLINATION":87.9288,"RA_OF_ASC_NODE":334.8221,"ARG_OF_PERICENTER":100.4442,"MEAN_ANOMALY":259.6924,"EPHEMERIS_TYPE":0,"CLASSIFICATION_TYPE":"U","NORAD_CAT_ID":49290,"ELEMENT_SET_NO":999,"REV_AT_EPOCH":19146,"BSTAR":0.00026719,"MEAN_MOTION_DOT":1.22e-6,"MEAN_MOTION_DDOT":0},{"OBJECT_NAME":"ONEWEB-0365","OBJECT_ID":"2021-090N","EPOCH":"2025-08-18T14:26:42.587520","MEAN_MOTION":13.19726526,"ECCENTRICITY":0.0001776,"INCLINATION":87.926,"RA_OF_ASC_NODE":5.0978,"ARG_OF_PERICENTER":93.7616,"MEAN_ANOMALY":266.372,"EPHEMERIS_TYPE":0,"CLASSIFICATION_TYPE":"U","NORAD_CAT_ID":49291,"ELEMENT_SET_NO":999,"REV_AT_EPOCH":18651,"BSTAR":-2.9851e-5,"MEAN_MOTION_DOT":1.0e-8,"MEAN_MOTION_DDOT":0},{"OBJECT_NAME":"ONEWEB-0366","OBJECT_ID":"2021-090P","EPOCH":"2025-08-18T13:31:01.705152","MEAN_MOTION":13.14501889,"ECCENTRICITY":0.000189,"INCLINATION":87.9093,"RA_OF_ASC_NODE":349.9502,"ARG_OF_PERICENTER":100.4009,"MEAN_ANOMALY":259.7334,"EPHEMERIS_TYPE":0,"CLASSIFICATION_TYPE":"U","NORAD_CAT_ID":49292,"ELEMENT_SET_NO":999,"REV_AT_EPOCH":18780,"BSTAR":0.0005893,"MEAN_MOTION_DOT":2.31e-6,"MEAN_MOTION_DDOT":0},{"OBJECT_NAME":"ONEWEB-0367","OBJECT_ID":"2021-090Q","EPOCH":"2025-08-18T14:10:14.379744","MEAN_MOTION":13.20772298,"ECCENTRICITY":0.0001728,"INCLINATION":87.9297,"RA_OF_ASC_NODE":334.7368,"ARG_OF_PERICENTER":96.7189,"MEAN_ANOMALY":263.4141,"EPHEMERIS_TYPE":0,"CLASSIFICATION_TYPE":"U","NORAD_CAT_ID":49293,"ELEMENT_SET_NO":999,"REV_AT_EPOCH":18988,"BSTAR":1.7091e-5,"MEAN_MOTION_DOT":2.0e-7,"MEAN_MOTION_DDOT":0},{"OBJECT_NAME":"ONEWEB-0368","OBJECT_ID":"2021-090R","EPOCH":"2025-08-18T13:31:34.516416","MEAN_MOTION":13.20771856,"ECCENTRICITY":0.0002609,"INCLINATION":87.9299,"RA_OF_ASC_NODE":334.7781,"ARG_OF_PERICENTER":87.8408,"MEAN_ANOMALY":272.3024,"EPHEMERIS_TYPE":0,"CLASSIFICATION_TYPE":"U","NORAD_CAT_ID":49294,"ELEMENT_SET_NO":999,"REV_AT_EPOCH":19103,"BSTAR":4.6435e-5,"MEAN_MOTION_DOT":3.2e-7,"MEAN_MOTION_DDOT":0},{"OBJECT_NAME":"ONEWEB-0369","OBJECT_ID":"2021-090S","EPOCH":"2025-08-18T08:52:22.109376","MEAN_MOTION":13.19726378,"ECCENTRICITY":0.0001825,"INCLINATION":87.9262,"RA_OF_ASC_NODE":5.1752,"ARG_OF_PERICENTER":94.5175,"MEAN_ANOMALY":265.6166,"EPHEMERIS_TYPE":0,"CLASSIFICATION_TYPE":"U","NORAD_CAT_ID":49295,"ELEMENT_SET_NO":999,"REV_AT_EPOCH":18647,"BSTAR":0.00010747,"MEAN_MOTION_DOT":5.6e-7,"MEAN_MOTION_DDOT":0},{"OBJECT_NAME":"ONEWEB-0370","OBJECT_ID":"2021-090T","EPOCH":"2025-08-18T12:34:46.845120","MEAN_MOTION":13.20772775,"ECCENTRICITY":0.0001597,"INCLINATION":87.9302,"RA_OF_ASC_NODE":334.757,"ARG_OF_PERICENTER":105.4023,"MEAN_ANOMALY":254.7287,"EPHEMERIS_TYPE":0,"CLASSIFICATION_TYPE":"U","NORAD_CAT_ID":49296,"ELEMENT_SET_NO":999,"REV_AT_EPOCH":18991,"BSTAR":4.4779e-5,"MEAN_MOTION_DOT":3.1e-7,"MEAN_MOTION_DDOT":0},{"OBJECT_NAME":"ONEWEB-0371","OBJECT_ID":"2021-090U","EPOCH":"2025-08-18T14:31:14.865024","MEAN_MOTION":13.19727112,"ECCENTRICITY":0.0001722,"INCLINATION":87.9263,"RA_OF_ASC_NODE":5.1183,"ARG_OF_PERICENTER":95.2972,"MEAN_ANOMALY":264.8357,"EPHEMERIS_TYPE":0,"CLASSIFICATION_TYPE":"U","NORAD_CAT_ID":49297,"ELEMENT_SET_NO":999,"REV_AT_EPOCH":18654,"BSTAR":0.00018833,"MEAN_MOTION_DOT":8.8e-7,"MEAN_MOTION_DDOT":0},{"OBJECT_NAME":"ONEWEB-0372","OBJECT_ID":"2021-090V","EPOCH":"2025-08-18T14:07:45.361344","MEAN_MOTION":13.20771437,"ECCENTRICITY":0.0002213,"INCLINATION":87.9291,"RA_OF_ASC_NODE":334.7503,"ARG_OF_PERICENTER":101.1477,"MEAN_ANOMALY":258.9905,"EPHEMERIS_TYPE":0,"CLASSIFICATION_TYPE":"U","NORAD_CAT_ID":49298,"ELEMENT_SET_NO":999,"REV_AT_EPOCH":18989,"BSTAR":-0.0010887,"MEAN_MOTION_DOT":-4.3e-6,"MEAN_MOTION_DDOT":0},{"OBJECT_NAME":"ONEWEB-0373","OBJECT_ID":"2021-090W","EPOCH":"2025-08-18T12:57:28.857312","MEAN_MOTION":13.20772689,"ECCENTRICITY":0.0001953,"INCLINATION":87.9295,"RA_OF_ASC_NODE":334.7718,"ARG_OF_PERICENTER":102.2848,"MEAN_ANOMALY":257.8504,"EPHEMERIS_TYPE":0,"CLASSIFICATION_TYPE":"U","NORAD_CAT_ID":49299,"ELEMENT_SET_NO":999,"REV_AT_EPOCH":19107,"BSTAR":9.116e-5,"MEAN_MOTION_DOT":5.0e-7,"MEAN_MOTION_DDOT":0},{"OBJECT_NAME":"ONEWEB-0374","OBJECT_ID":"2021-090X","EPOCH":"2025-08-18T07:43:58.004832","MEAN_MOTION":13.14503874,"ECCENTRICITY":0.000244,"INCLINATION":87.9082,"RA_OF_ASC_NODE":349.9759,"ARG_OF_PERICENTER":99.9232,"MEAN_ANOMALY":260.2173,"EPHEMERIS_TYPE":0,"CLASSIFICATION_TYPE":"U","NORAD_CAT_ID":49300,"ELEMENT_SET_NO":999,"REV_AT_EPOCH":18777,"BSTAR":0.00077581,"MEAN_MOTION_DOT":3.0e-6,"MEAN_MOTION_DDOT":0}]
