ONEWEB-0358             
1 49284U 21090F   25230.53203346  .00000061  00000+0  11698-3 0  9991
2 49284  87.9300 334.7439 0001953 104.1299 256.0052 13.20773589190604
ONEWEB-0359             
1 49285U 21090G   25230.52888171  .00000014  00000+0  21247-5 0  9997
2 49285  87.9290 334.7545 0001844 111.5532 248.5798 13.20772162190588
ONEWEB-0360             
1 49286U 21090H   25230.51941139  .00000034  00000+0  52849-4 0  9994
2 49286  87.9293 334.7651 0001812 104.1384 255.9950 13.20770968189894
ONEWEB-0361             
1 49287U 21090J   25230.57623449  .00000037  00000+0  59216-4 0  9990
2 49287  87.9297 334.7487 0002055 100.5878 259.5487 13.20772562190354
ONEWEB-0362             
1 49288U 21090K   25230.44077396  .00000073  00000+0  15114-3 0  9999
2 49288  87.9260   5.1750 0001632  96.6525 263.4794 13.19726541186984
ONEWEB-0363             
1 49289U 21090L   25230.59202109 -.00000066  00000+0 -19476-3 0  9997
2 49289  87.9295 334.7412 0002269 104.5151 255.6234 13.20772434190363
ONEWEB-0364             
1 49290U 21090M   25230.32686784  .00000122  00000+0  26719-3 0  9994
2 49290  87.9288 334.8221 0002063 100.4442 259.6924 13.20771277191462
ONEWEB-0365             
1 49291U 21090N   25230.60188180  .00000001  00000+0 -29851-4 0  9991
2 49291  87.9260   5.0978 0001776  93.7616 266.3720 13.19726526186510
ONEWEB-0366             
1 49292U 21090P   25230.56321418  .00000231  00000+0  58930-3 0  9993
2 49292  87.9093 349.9502 0001890 100.4009 259.7334 13.14501889187805
ONEWEB-0367             
1 49293U 21090Q   25230.59044421  .00000020  00000+0  17091-4 0  9993
2 49293  87.9297 334.7368 0001728  96.7189 263.4141 13.20772298189889
ONEWEB-0368             
1 49294U 21090R   25230.56359394  .00000032  00000+0  46435-4 0  9996
2 49294  87.9299 334.7781 0002609  87.8408 272.3024 13.20771856191033
ONEWEB-0369             
1 49295U 21090S   25230.36970034  .00000056  00000+0  10747-3 0  9997
2 49295  87.9262   5.1752 0001825  94.5175 265.6166 13.19726378186477
ONEWEB-0370             
1 49296U 21090T   25230.52415330  .00000031  00000+0  44779-4 0  9995
2 49296  87.9302 334.7570 0001597 105.4023 254.7287 13.20772775189911
ONEWEB-0371             
1 49297U 21090U   25230.60503316  .00000088  00000+0  18833-3 0  9990
2 49297  87.9263   5.1183 0001722  95.2972 264.8357 13.19727112186545
ONEWEB-0372             
1 49298U 21090V   25230.58871946 -.00000430  00000+0 -10887-2 0  9998
2 49298  87.9291 334.7503 0002213 101.1477 258.9905 13.20771437189892
ONEWEB-0373             
1 49299U 21090W   25230.53991733  .00000050  00000+0  91160-4 0  9992
2 49299  87.9295 334.7718 0001953 102.2848 257.8504 13.20772689191075
ONEWEB-0374             
1 49300U 21090X   25230.32219913  .00000300  00000+0  77581-3 0  9993
2 49300  87.9082 349.9759 0002440  99.9232 260.2173 13.14503874187779
